[{"OBJECT_NAME":"NANOSATC-BR1","OBJECT_ID":"2014-033Q","EPOCH":"2026-03-09T23:35:03.168384","MEAN_MOTION":15.28136801,"ECCENTRICITY":0.00046435,"INCLINATION":98.0845,"RA_OF_ASC_NODE":92.7804,"ARG_OF_PERICENTER":147.6715,"MEAN_ANOMALY":212.4808,"EPHEMERIS_TYPE":0,"CLASSIFICATION_TYPE":"U","NORAD_CAT_ID":40024,"ELEMENT_SET_NO":999,"REV_AT_EPOCH":63881,"BSTAR":0.00074295057,"MEAN_MOTION_DOT":0.00020336,"MEAN_MOTION_DDOT":0},{"OBJECT_NAME":"STARLINK-35762","OBJECT_ID":"2025-303K","EPOCH":"2026-03-09T23:08:54.457152","MEAN_MOTION":15.27601021,"ECCENTRICITY":6.381e-5,"INCLINATION":42.9981,"RA_OF_ASC_NODE":309.4666,"ARG_OF_PERICENTER":243.7066,"MEAN_ANOMALY":116.372,"EPHEMERIS_TYPE":0,"CLASSIFICATION_TYPE":"U","NORAD_CAT_ID":67172,"ELEMENT_SET_NO":999,"REV_AT_EPOCH":1277,"BSTAR":0.0012773401,"MEAN_MOTION_DOT":0.00035077,"MEAN_MOTION_DDOT":0}]
